0 FENGYUN 1C DEB
1 31151U 99025BHD 13283.27675654  .00002212  00000-0  15344-2 0  8888
2 31151 098.9636 220.9557 0081709 205.0372 313.4175 13.98345191334602
0 FENGYUN 1C DEB
1 31151U 99025BHD 13285.82561106  .00002259  00000-0  15665-2 0  8895
2 31151 098.9642 223.4467 0081684 197.7175 184.7845 13.98354624334960
0 FENGYUN 1C DEB
1 31151U 99025BHD 13288.28652517  .00002945  00000-0  20320-2 0  8903
2 31151 098.9655 225.8522 0081712 190.7879 333.4005 13.98368218335302
0 FENGYUN 1C DEB
1 31151U 99025BHD 13290.28887626  .00003024  00000-0  20855-2 0  8910
2 31151 098.9660 227.8090 0081649 185.2587 333.5279 13.98378513335587
0 FENGYUN 1C DEB
1 31151U 99025BHD 13292.48817404  .00002926  00000-0  20180-2 0  8923
2 31151 098.9665 229.9589 0081707 179.0187 245.3732 13.98390253335893
0 FENGYUN 1C DEB
1 31151U 99025BHD 13295.07767271  .00003141  00000-0  21634-2 0  8933
2 31151 098.9667 232.4905 0081818 171.7467 321.6403 13.98403858336259
